{
    "links": {
        "self": "http://www.neowsapp.com/rest/v1/neo/54016669?api_key=iIulBulltgU6a56xZRHN4H3l9WmuAYTsLGpBGhQ2"
    },
    "id": "54016669",
    "neo_reference_id": "54016669",
    "name": "(2020 HO3)",
    "designation": "2020 HO3",
    "nasa_jpl_url": "http://ssd.jpl.nasa.gov/sbdb.cgi?sstr=54016669",
    "absolute_magnitude_h": 26.143,
    "estimated_diameter": {
        "kilometers": {
            "estimated_diameter_min": 0.0157020001,
            "estimated_diameter_max": 0.0351107397
        },
        "meters": {
            "estimated_diameter_min": 15.7020001296,
            "estimated_diameter_max": 35.1107396724
        },
        "miles": {
            "estimated_diameter_min": 0.0097567675,
            "estimated_diameter_max": 0.0218167954
        },
        "feet": {
            "estimated_diameter_min": 51.515750105,
            "estimated_diameter_max": 115.1927191468
        }
    },
    "is_potentially_hazardous_asteroid": false,
    "close_approach_data": [
        {
            "close_approach_date": "2020-04-30",
            "close_approach_date_full": "2020-Apr-30 02:07",
            "epoch_date_close_approach": 1588212420000,
            "relative_velocity": {
                "kilometers_per_second": "9.3050341281",
                "kilometers_per_hour": "33498.1228612924",
                "miles_per_hour": "20814.4308412292"
            },
            "miss_distance": {
                "astronomical": "0.0447492352",
                "lunar": "17.4074524928",
                "kilometers": "6694390.270049024",
                "miles": "4159701.2258995712"
            },
            "orbiting_body": "Earth"
        },
        {
            "close_approach_date": "2020-11-01",
            "close_approach_date_full": "2020-Nov-01 06:55",
            "epoch_date_close_approach": 1604213700000,
            "relative_velocity": {
                "kilometers_per_second": "8.0335333518",
                "kilometers_per_hour": "28920.7200664398",
                "miles_per_hour": "17970.2107546164"
            },
            "miss_distance": {
                "astronomical": "0.4290624034",
                "lunar": "166.9052749226",
                "kilometers": "64186821.645720758",
                "miles": "39883841.5323441404"
            },
            "orbiting_body": "Earth"
        }
    ],
    "orbital_data": {
        "orbit_id": "2",
        "orbit_determination_date": "2020-04-24 06:56:53",
        "first_observation_date": "2020-04-19",
        "last_observation_date": "2020-04-24",
        "data_arc_in_days": 5,
        "observations_used": 20,
        "orbit_uncertainty": "8",
        "minimum_orbit_intersection": ".0425557",
        "jupiter_tisserand_invariant": "5.065",
        "epoch_osculation": "2458959.5",
        "eccentricity": ".2952320797892704",
        "semi_major_axis": "1.256660008968036",
        "inclination": "10.02342690222624",
        "ascending_node_longitude": "27.55937316520378",
        "orbital_period": "514.5470810021792",
        "perihelion_distance": ".8856536609323994",
        "perihelion_argument": "259.0273074462616",
        "aphelion_distance": "1.627666357003672",
        "perihelion_time": "2459025.193354029410",
        "mean_anomaly": "314.0380106626483",
        "mean_motion": ".6996444315626684",
        "equinox": "J2000",
        "orbit_class": {
            "orbit_class_type": "APO",
            "orbit_class_description": "Near-Earth asteroid orbits which cross the Earth’s orbit similar to that of 1862 Apollo",
            "orbit_class_range": "a (semi-major axis) > 1.0 AU; q (perihelion) < 1.017 AU"
        }
    },
    "is_sentry_object": false
}